$$SOE
2460154.500000000, A.D. 2023-Jul-29 00:00:00.0000, 3.367305915858906E+08, 9.896240316761068E+07, -1.048638471320602E+08,
2460161.500000000, A.D. 2023-Aug-05 00:00:00.0000, 3.307528930836065E+08, 1.079939008498072E+08, -1.076665390222729E+08,
2460168.500000000, A.D. 2023-Aug-12 00:00:00.0000, 3.244429957527720E+08, 1.169170074266227E+08, -1.103609867484755E+08,
2460175.500000000, A.D. 2023-Aug-19 00:00:00.0000, 3.178014799039741E+08, 1.257206768555534E+08, -1.129425224828382E+08,
2460182.500000000, A.D. 2023-Aug-26 00:00:00.0000, 3.108292769840852E+08, 1.343935836876796E+08, -1.154064229125135E+08,
2460189.500000000, A.D. 2023-Sep-02 00:00:00.0000, 3.035276953306209E+08, 1.429241213360258E+08, -1.177479132392915E+08,
2460196.500000000, A.D. 2023-Sep-09 00:00:00.0000, 2.958984474456426E+08, 1.513004014150880E+08, -1.199621719780130E+08,
2460203.500000000, A.D. 2023-Sep-16 00:00:00.0000, 2.879436789760183E+08, 1.595102542703584E+08, -1.220443366558768E+08,
2460210.500000000, A.D. 2023-Sep-23 00:00:00.0000, 2.796659998216352E+08, 1.675412311746114E+08, -1.239895105136249E+08,
2460217.500000000, A.D. 2023-Sep-30 00:00:00.0000, 2.710685170157274E+08, 1.753806095849016E+08, -1.257927701655544E+08,
2460224.500000000, A.D. 2023-Oct-07 00:00:00.0000, 2.621548669829690E+08, 1.830154011452335E+08, -1.274491741326189E+08,
2460231.500000000, A.D. 2023-Oct-14 00:00:00.0000, 2.529292481594748E+08, 1.904323593748853E+08, -1.289537727106237E+08,
2460238.500000000, A.D. 2023-Oct-21 00:00:00.0000, 2.433964571224511E+08, 1.976179889114695E+08, -1.303016194384690E+08,
2460245.500000000, A.D. 2023-Oct-28 00:00:00.0000, 2.335619266900043E+08, 2.045585588531967E+08, -1.314877839515928E+08,
2460252.500000000, A.D. 2023-Nov-04 00:00:00.0000, 2.234317645937902E+08, 2.112401197312061E+08, -1.325073662728681E+08,
2460259.500000000, A.D. 2023-Nov-11 00:00:00.0000, 2.130127927157393E+08, 2.176485238243277E+08, -1.333555127086342E+08,
2460266.500000000, A.D. 2023-Nov-18 00:00:00.0000, 2.023125868742660E+08, 2.237694490738727E+08, -1.340274334714930E+08,
2460273.500000000, A.D. 2023-Nov-25 00:00:00.0000, 1.913395169451397E+08, 2.295884269513967E+08, -1.345184221232322E+08,
2460280.500000000, A.D. 2023-Dec-02 00:00:00.0000, 1.801027869996606E+08, 2.350908746032411E+08, -1.348238769210041E+08,
2460287.500000000, A.D. 2023-Dec-09 00:00:00.0000, 1.686124751303968E+08, 2.402621315463839E+08, -1.349393241471360E+08,
2460294.500000000, A.D. 2023-Dec-16 00:00:00.0000, 1.568795727786384E+08, 2.450875012524668E+08, -1.348604435018697E+08,
2460301.500000000, A.D. 2023-Dec-23 00:00:00.0000, 1.449160233705516E+08, 2.495522986121203E+08, -1.345830955698218E+08,
2460308.500000000, A.D. 2023-Dec-30 00:00:00.0000, 1.327347583074354E+08, 2.536419045979088E+08, -1.341033511561960E+08,
2460315.500000000, A.D. 2024-Jan-06 00:00:00.0000, 1.203497278388310E+08, 2.573418259938046E+08, -1.334175224894941E+08,
2460322.500000000, A.D. 2024-Jan-13 00:00:00.0000, 1.077759292185598E+08, 2.606377585702469E+08, -1.325221966692744E+08,
2460329.500000000, A.D. 2024-Jan-20 00:00:00.0000, 9.502943252998902E+07, 2.635156568989588E+08, -1.314142711166351E+08,
2460336.500000000, A.D. 2024-Jan-27 00:00:00.0000, 8.212740123960701E+07, 2.659618114773686E+08, -1.300909906263479E+08,
2460343.500000000, A.D. 2024-Feb-03 00:00:00.0000, 6.908810607373269E+07, 2.679629321316755E+08, -1.285499858416509E+08,
2460350.500000000, A.D. 2024-Feb-10 00:00:00.0000, 5.593093147011155E+07, 2.695062372048985E+08, -1.267893129238689E+08,
2460357.500000000, A.D. 2024-Feb-17 00:00:00.0000, 4.267637368410786E+07, 2.705795481952600E+08, -1.248074940854058E+08,
2460364.500000000, A.D. 2024-Feb-24 00:00:00.0000, 2.934602951302255E+07, 2.711713893594632E+08, -1.226035585739894E+08,
2460371.500000000, A.D. 2024-Mar-02 00:00:00.0000, 1.596257460718598E+07, 2.712710915745991E+08, -1.201770836263615E+08,
2460378.500000000, A.D. 2024-Mar-09 00:00:00.0000, 2.549730487482870E+06, 2.708688995353962E+08, -1.175282348490292E+08,
2460385.500000000, A.D. 2024-Mar-16 00:00:00.0000, -1.086778027896000E+07, 2.699560814283220E+08, -1.146578054159131E+08,
2460392.500000000, A.D. 2024-Mar-23 00:00:00.0000, -2.426429167678346E+07, 2.685250409386595E+08, -1.115672532904765E+08,
2460399.500000000, A.D. 2024-Mar-30 00:00:00.0000, -3.761326751908443E+07, 2.665694301127916E+08, -1.082587355205641E+08,
2460406.500000000, A.D. 2024-Apr-06 00:00:00.0000, -5.088739061008911E+07, 2.640842580578676E+08, -1.047351390991519E+08,
2460413.500000000, A.D. 2024-Apr-13 00:00:00.0000, -6.405866447749903E+07, 2.610659945030607E+08, -1.010001078216123E+08,
2460420.500000000, A.D. 2024-Apr-20 00:00:00.0000, -7.709852856423542E+07, 2.575126689595920E+08, -9.705806401331963E+07,
2460427.500000000, A.D. 2024-Apr-27 00:00:00.0000, -8.997798800109796E+07, 2.534239628687324E+08, -9.291422422059749E+07,
2460434.500000000, A.D. 2024-May-04 00:00:00.0000, -1.026677571269547E+08, 2.488012919291191E+08, -8.857460815605271E+07,
2460441.500000000, A.D. 2024-May-11 00:00:00.0000, -1.151384153979611E+08, 2.436478764036986E+08, -8.404604022805923E+07,
2460448.500000000, A.D. 2024-May-18 00:00:00.0000, -1.273605740981551E+08, 2.379687974016642E+08, -7.933614306230968E+07,
2460455.500000000, A.D. 2024-May-25 00:00:00.0000, -1.393050519417060E+08, 2.317710372434232E+08, -7.445332255159505E+07,
2460462.500000000, A.D. 2024-Jun-01 00:00:00.0000, -1.509430572651839E+08, 2.250635021804614E+08, -6.940674413575962E+07,
2460469.500000000, A.D. 2024-Jun-08 00:00:00.0000, -1.622463740045995E+08, 2.178570260621468E+08, -6.420630021033540E+07,
2460476.500000000, A.D. 2024-Jun-15 00:00:00.0000, -1.731875482392918E+08, 2.101643544618412E+08, -5.886256873112647E+07,
2460483.500000000, A.D. 2024-Jun-22 00:00:00.0000, -1.837400733059982E+08, 2.020001098177218E+08, -5.338676311691669E+07,
2460490.500000000, A.D. 2024-Jun-29 00:00:00.0000, -1.938785725021904E+08, 1.933807356147336E+08, -4.779067391545961E+07,
2460497.500000000, A.D. 2024-Jul-06 00:00:00.0000, -2.035789736054125E+08, 1.843244174685396E+08, -4.208660339024378E+07,
2460504.500000000, A.D. 2024-Jul-13 00:00:00.0000, -2.128186702202622E+08, 1.748509847421517E+08, -3.628729387479705E+07,
2460511.500000000, A.D. 2024-Jul-20 00:00:00.0000, -2.215766691028575E+08, 1.649817951431578E+08, -3.040585069761419E+07,
2460518.500000000, A.D. 2024-Jul-27 00:00:00.0000, -2.298337215511936E+08, 1.547396030899440E+08, -2.445566091193662E+07,
2460525.500000000, A.D. 2024-Aug-03 00:00:00.0000, -2.375724363933169E+08, 1.441484135910678E+08, -1.845030920545252E+07,
2460532.500000000, A.D. 2024-Aug-10 00:00:00.0000, -2.447773726839199E+08, 1.332333240820187E+08, -1.240349240284350E+07,
2460539.500000000, A.D. 2024-Aug-17 00:00:00.0000, -2.514351108530602E+08, 1.220203569670921E+08, -6.328933988538653E+06,
2460546.500000000, A.D. 2024-Aug-24 00:00:00.0000, -2.575343015893602E+08, 1.105362857527397E+08, -2.403000447272062E+05,
2460553.500000000, A.D. 2024-Aug-31 00:00:00.0000, -2.630656921676312E+08, 9.880845768407930E+07, 5.848882071600087E+06,
2460560.500000000, A.D. 2024-Sep-07 00:00:00.0000, -2.680221301886349E+08, 8.686461594142030E+07, 1.192530109596350E+07,
2460567.500000000, A.D. 2024-Sep-14 00:00:00.0000, -2.723985454617586E+08, 7.473272519339374E+07, 1.797593428818767E+07,
2460574.500000000, A.D. 2024-Sep-21 00:00:00.0000, -2.761919133148071E+08, 6.244080351717666E+07, 2.398811425715167E+07,
2460581.500000000, A.D. 2024-Sep-28 00:00:00.0000, -2.794012014542860E+08, 5.001675979652946E+07, 2.994958924852768E+07,
2460588.500000000, A.D. 2024-Oct-05 00:00:00.0000, -2.820272986313245E+08, 3.748823863396594E+07, 3.584857603949217E+07,
2460595.500000000, A.D. 2024-Oct-12 00:00:00.0000, -2.840729275929049E+08, 2.488247743714633E+07, 4.167380538542851E+07,
2460602.500000000, A.D. 2024-Oct-19 00:00:00.0000, -2.855425463347540E+08, 1.222617670979872E+07, 4.741456000527328E+07,
2460609.500000000, A.D. 2024-Oct-26 00:00:00.0000, -2.864422400292532E+08, -4.546163126266636E+05, 5.306070506407622E+07,
2460616.500000000, A.D. 2024-Nov-02 00:00:00.0000, -2.867796056914220E+08, -1.313461023951941E+07, 5.860271129260227E+07,
2460623.500000000, A.D. 2024-Nov-09 00:00:00.0000, -2.865636317243747E+08, -2.578935804059378E+07, 6.403167104264402E+07,
2460630.500000000, A.D. 2024-Nov-16 00:00:00.0000, -2.858045744301353E+08, -3.839533155425940E+07, 6.933930768899769E+07,
2460637.500000000, A.D. 2024-Nov-23 00:00:00.0000, -2.845138333851043E+08, -5.092998235963863E+07, 7.451797886741005E+07,
2460644.500000000, A.D. 2024-Nov-30 00:00:00.0000, -2.827038272223113E+08, -6.337178960020608E+07, 7.956067408469029E+07,
2460651.500000000, A.D. 2024-Dec-07 00:00:00.0000, -2.803878709360226E+08, -7.570029506513658E+07, 8.446100729442087E+07,
2460658.500000000, A.D. 2024-Dec-14 00:00:00.0000, -2.775800567071509E+08, -8.789612517059559E+07, 8.921320521714377E+07,
2460665.500000000, A.D. 2024-Dec-21 00:00:00.0000, -2.742951416543082E+08, -9.994100204940529E+07, 9.381209213344896E+07,
2460672.500000000, A.D. 2024-Dec-28 00:00:00.0000, -2.705484414119025E+08, -1.118177477477911E+08, 9.825307133350368E+07,
2460679.500000000, A.D. 2025-Jan-04 00:00:00.0000, -2.663557276062135E+08, -1.235102802082853E+08, 1.025321037619543E+08,
2460686.500000000, A.D. 2025-Jan-11 00:00:00.0000, -2.617331315209362E+08, -1.350036004306838E+08, 1.066456847044559E+08,
2460693.500000000, A.D. 2025-Jan-18 00:00:00.0000, -2.566970551652928E+08, -1.462837727641505E+08, 1.105908190238135E+08,
2460700.500000000, A.D. 2025-Jan-25 00:00:00.0000, -2.512640896521464E+08, -1.573378998037679E+08, 1.143649953414481E+08,
2460707.500000000, A.D. 2025-Feb-01 00:00:00.0000, -2.454509407217089E+08, -1.681540928628961E+08, 1.179661595568184E+08,
2460714.500000000, A.D. 2025-Feb-08 00:00:00.0000, -2.392743612668306E+08, -1.787214388736320E+08, 1.213926880641459E+08,
2460721.500000000, A.D. 2025-Feb-15 00:00:00.0000, -2.327510906537113E+08, -1.890299645345752E+08, 1.246433609757122E+08,
$$EOE